[{"OBJECT_NAME":"STARLINK-36323","OBJECT_ID":"2026-054AD","EPOCH":"2026-04-01T04:18:30.902976","MEAN_MOTION":15.80883739,"ECCENTRICITY":0.0001904,"INCLINATION":53.1591,"RA_OF_ASC_NODE":199.7444,"ARG_OF_PERICENTER":24.5556,"MEAN_ANOMALY":335.5557,"EPHEMERIS_TYPE":0,"CLASSIFICATION_TYPE":"U","NORAD_CAT_ID":68259,"ELEMENT_SET_NO":999,"REV_AT_EPOCH":233,"BSTAR":0.0011067,"MEAN_MOTION_DOT":0.0022358,"MEAN_MOTION_DDOT":0},{"OBJECT_NAME":"STARLINK-37056","OBJECT_ID":"2026-054AE","EPOCH":"2026-04-01T04:15:16.482240","MEAN_MOTION":15.80885124,"ECCENTRICITY":0.0001184,"INCLINATION":53.159,"RA_OF_ASC_NODE":199.729,"ARG_OF_PERICENTER":17.8893,"MEAN_ANOMALY":342.2171,"EPHEMERIS_TYPE":0,"CLASSIFICATION_TYPE":"U","NORAD_CAT_ID":68260,"ELEMENT_SET_NO":999,"REV_AT_EPOCH":233,"BSTAR":0.0012692,"MEAN_MOTION_DOT":0.00257568,"MEAN_MOTION_DDOT":0},{"OBJECT_NAME":"TEN-KOH 2","OBJECT_ID":"2025-241B","EPOCH":"2026-04-01T01:35:06.133344","MEAN_MOTION":15.22820729,"ECCENTRICITY":0.0004524,"INCLINATION":51.6393,"RA_OF_ASC_NODE":326.4789,"ARG_OF_PERICENTER":238.2902,"MEAN_ANOMALY":121.7634,"EPHEMERIS_TYPE":0,"CLASSIFICATION_TYPE":"U","NORAD_CAT_ID":68261,"ELEMENT_SET_NO":999,"REV_AT_EPOCH":315,"BSTAR":0.00047755,"MEAN_MOTION_DOT":0.0001101,"MEAN_MOTION_DDOT":0},{"OBJECT_NAME":"STARLINK-37162","OBJECT_ID":"2026-055A","EPOCH":"2026-04-01T04:00:03.999744","MEAN_MOTION":15.87571774,"ECCENTRICITY":8.72e-5,"INCLINATION":53.1578,"RA_OF_ASC_NODE":224.7157,"ARG_OF_PERICENTER":74.4219,"MEAN_ANOMALY":356.9492,"EPHEMERIS_TYPE":0,"CLASSIFICATION_TYPE":"U","NORAD_CAT_ID":68262,"ELEMENT_SET_NO":999,"REV_AT_EPOCH":324,"BSTAR":-0.0048099,"MEAN_MOTION_DOT":-0.01148465,"MEAN_MOTION_DDOT":0},{"OBJECT_NAME":"STARLINK-37156","OBJECT_ID":"2026-055B","EPOCH":"2026-04-01T04:00:03.999744","MEAN_MOTION":15.87650207,"ECCENTRICITY":7.63e-5,"INCLINATION":53.1576,"RA_OF_ASC_NODE":224.7088,"ARG_OF_PERICENTER":77.1259,"MEAN_ANOMALY":357.7939,"EPHEMERIS_TYPE":0,"CLASSIFICATION_TYPE":"U","NORAD_CAT_ID":68263,"ELEMENT_SET_NO":999,"REV_AT_EPOCH":324,"BSTAR":-0.0047701,"MEAN_MOTION_DOT":-0.01144011,"MEAN_MOTION_DDOT":0},{"OBJECT_NAME":"STARLINK-37163","OBJECT_ID":"2026-055C","EPOCH":"2026-04-01T04:00:03.999744","MEAN_MOTION":15.8773593,"ECCENTRICITY":8.07e-5,"INCLINATION":53.1575,"RA_OF_ASC_NODE":224.6909,"ARG_OF_PERICENTER":72.2349,"MEAN_ANOMALY":10.8889,"EPHEMERIS_TYPE":0,"CLASSIFICATION_TYPE":"U","NORAD_CAT_ID":68264,"ELEMENT_SET_NO":999,"REV_AT_EPOCH":324,"BSTAR":-0.0048068,"MEAN_MOTION_DOT":-0.01156098,"MEAN_MOTION_DDOT":0},{"OBJECT_NAME":"STARLINK-37133","OBJECT_ID":"2026-055D","EPOCH":"2026-04-01T04:00:03.999744","MEAN_MOTION":15.8768931,"ECCENTRICITY":7.51e-5,"INCLINATION":53.1575,"RA_OF_ASC_NODE":224.6998,"ARG_OF_PERICENTER":77.4152,"MEAN_ANOMALY":1.6661,"EPHEMERIS_TYPE":0,"CLASSIFICATION_TYPE":"U","NORAD_CAT_ID":68265,"ELEMENT_SET_NO":999,"REV_AT_EPOCH":324,"BSTAR":-0.004802,"MEAN_MOTION_DOT":-0.01152685,"MEAN_MOTION_DDOT":0},{"OBJECT_NAME":"STARLINK-37042","OBJECT_ID":"2026-055E","EPOCH":"2026-04-01T04:00:03.999744","MEAN_MOTION":15.87733151,"ECCENTRICITY":9.11e-5,"INCLINATION":53.1573,"RA_OF_ASC_NODE":224.6814,"ARG_OF_PERICENTER":74.5854,"MEAN_ANOMALY":13.2984,"EPHEMERIS_TYPE":0,"CLASSIFICATION_TYPE":"U","NORAD_CAT_ID":68266,"ELEMENT_SET_NO":999,"REV_AT_EPOCH":324,"BSTAR":-0.0048793,"MEAN_MOTION_DOT":-0.01193646,"MEAN_MOTION_DDOT":0},{"OBJECT_NAME":"STARLINK-37103","OBJECT_ID":"2026-055F","EPOCH":"2026-04-01T04:00:03.999744","MEAN_MOTION":15.87757608,"ECCENTRICITY":7.72e-5,"INCLINATION":53.1576,"RA_OF_ASC_NODE":224.6723,"ARG_OF_PERICENTER":78.3643,"MEAN_ANOMALY":13.8516,"EPHEMERIS_TYPE":0,"CLASSIFICATION_TYPE":"U","NORAD_CAT_ID":68267,"ELEMENT_SET_NO":999,"REV_AT_EPOCH":324,"BSTAR":-0.0048856,"MEAN_MOTION_DOT":-0.01196258,"MEAN_MOTION_DDOT":0},{"OBJECT_NAME":"STARLINK-36999","OBJECT_ID":"2026-055G","EPOCH":"2026-04-01T04:00:03.999744","MEAN_MOTION":15.87807259,"ECCENTRICITY":7.23e-5,"INCLINATION":53.1573,"RA_OF_ASC_NODE":224.664,"ARG_OF_PERICENTER":80.3254,"MEAN_ANOMALY":15.9665,"EPHEMERIS_TYPE":0,"CLASSIFICATION_TYPE":"U","NORAD_CAT_ID":68268,"ELEMENT_SET_NO":999,"REV_AT_EPOCH":324,"BSTAR":-0.0049098,"MEAN_MOTION_DOT":-0.01204195,"MEAN_MOTION_DDOT":0},{"OBJECT_NAME":"STARLINK-36962","OBJECT_ID":"2026-055H","EPOCH":"2026-04-01T04:00:03.999744","MEAN_MOTION":15.8784749,"ECCENTRICITY":8.06e-5,"INCLINATION":53.1574,"RA_OF_ASC_NODE":224.655,"ARG_OF_PERICENTER":74.5551,"MEAN_ANOMALY":25.9579,"EPHEMERIS_TYPE":0,"CLASSIFICATION_TYPE":"U","NORAD_CAT_ID":68269,"ELEMENT_SET_NO":999,"REV_AT_EPOCH":324,"BSTAR":-0.0049366,"MEAN_MOTION_DOT":-0.01212262,"MEAN_MOTION_DDOT":0},{"OBJECT_NAME":"STARLINK-37028","OBJECT_ID":"2026-055J","EPOCH":"2026-04-01T04:00:03.999744","MEAN_MOTION":15.87747,"ECCENTRICITY":8.76e-5,"INCLINATION":53.1573,"RA_OF_ASC_NODE":224.632,"ARG_OF_PERICENTER":73.1932,"MEAN_ANOMALY":38.1527,"EPHEMERIS_TYPE":0,"CLASSIFICATION_TYPE":"U","NORAD_CAT_ID":68270,"ELEMENT_SET_NO":999,"REV_AT_EPOCH":324,"BSTAR":-0.0051209,"MEAN_MOTION_DOT":-0.01246869,"MEAN_MOTION_DDOT":0},{"OBJECT_NAME":"STARLINK-37029","OBJECT_ID":"2026-055K","EPOCH":"2026-04-01T04:00:03.999744","MEAN_MOTION":15.87711711,"ECCENTRICITY":7.74e-5,"INCLINATION":53.1572,"RA_OF_ASC_NODE":224.6415,"ARG_OF_PERICENTER":76.0688,"MEAN_ANOMALY":30.9763,"EPHEMERIS_TYPE":0,"CLASSIFICATION_TYPE":"U","NORAD_CAT_ID":68271,"ELEMENT_SET_NO":999,"REV_AT_EPOCH":324,"BSTAR":-0.0051155,"MEAN_MOTION_DOT":-0.01243695,"MEAN_MOTION_DDOT":0},{"OBJECT_NAME":"STARLINK-36974","OBJECT_ID":"2026-055L","EPOCH":"2026-04-01T04:00:03.999744","MEAN_MOTION":15.87744218,"ECCENTRICITY":9.44e-5,"INCLINATION":53.1571,"RA_OF_ASC_NODE":224.6219,"ARG_OF_PERICENTER":77.1178,"MEAN_ANOMALY":39.1515,"EPHEMERIS_TYPE":0,"CLASSIFICATION_TYPE":"U","NORAD_CAT_ID":68272,"ELEMENT_SET_NO":999,"REV_AT_EPOCH":324,"BSTAR":-0.0051957,"MEAN_MOTION_DOT":-0.01262895,"MEAN_MOTION_DDOT":0},{"OBJECT_NAME":"STARLINK-37019","OBJECT_ID":"2026-055M","EPOCH":"2026-04-01T04:00:03.999744","MEAN_MOTION":15.87810727,"ECCENTRICITY":9.12e-5,"INCLINATION":53.1572,"RA_OF_ASC_NODE":224.6131,"ARG_OF_PERICENTER":78.8399,"MEAN_ANOMALY":41.3987,"EPHEMERIS_TYPE":0,"CLASSIFICATION_TYPE":"U","NORAD_CAT_ID":68273,"ELEMENT_SET_NO":999,"REV_AT_EPOCH":324,"BSTAR":-0.0052015,"MEAN_MOTION_DOT":-0.01267846,"MEAN_MOTION_DDOT":0},{"OBJECT_NAME":"STARLINK-37129","OBJECT_ID":"2026-055N","EPOCH":"2026-04-01T04:00:03.999744","MEAN_MOTION":15.87848335,"ECCENTRICITY":8.52e-5,"INCLINATION":53.157,"RA_OF_ASC_NODE":224.6044,"ARG_OF_PERICENTER":79.005,"MEAN_ANOMALY":45.5505,"EPHEMERIS_TYPE":0,"CLASSIFICATION_TYPE":"U","NORAD_CAT_ID":68274,"ELEMENT_SET_NO":999,"REV_AT_EPOCH":324,"BSTAR":-0.0051873,"MEAN_MOTION_DOT":-0.01266865,"MEAN_MOTION_DDOT":0},{"OBJECT_NAME":"STARLINK-37123","OBJECT_ID":"2026-055P","EPOCH":"2026-04-01T04:00:03.999744","MEAN_MOTION":15.87928343,"ECCENTRICITY":9.18e-5,"INCLINATION":53.1572,"RA_OF_ASC_NODE":224.5966,"ARG_OF_PERICENTER":76.4722,"MEAN_ANOMALY":51.9663,"EPHEMERIS_TYPE":0,"CLASSIFICATION_TYPE":"U","NORAD_CAT_ID":68275,"ELEMENT_SET_NO":999,"REV_AT_EPOCH":324,"BSTAR":-0.00521,"MEAN_MOTION_DOT":-0.0127634,"MEAN_MOTION_DDOT":0}]
