STARLINK-36323          
1 68259U 26054AD  26091.17952434  .00223580  00000+0  11067-2 0  9996
2 68259  53.1591 199.7444 0001904  24.5556 335.5557 15.80883739  2338
STARLINK-37056          
1 68260U 26054AE  26091.17727410  .00257568  00000+0  12692-2 0  9990
2 68260  53.1590 199.7290 0001184  17.8893 342.2171 15.80885124  2334
TEN-KOH 2               
1 68261U 25241B   26091.06604321  .00011010  00000+0  47755-3 0  9990
2 68261  51.6393 326.4789 0004524 238.2902 121.7634 15.22820729  3153
STARLINK-37162          
1 68262U 26055A   26091.16671296 -.01148465  00000+0 -48099-2 0  9990
2 68262  53.1578 224.7157 0000872  74.4219 356.9492 15.87571774  3246
STARLINK-37156          
1 68263U 26055B   26091.16671296 -.01144011  00000+0 -47701-2 0  9993
2 68263  53.1576 224.7088 0000763  77.1259 357.7939 15.87650207  3245
STARLINK-37163          
1 68264U 26055C   26091.16671296 -.01156098  00000+0 -48068-2 0  9999
2 68264  53.1575 224.6909 0000807  72.2349  10.8889 15.87735930  3249
STARLINK-37133          
1 68265U 26055D   26091.16671296 -.01152685  00000+0 -48020-2 0  9996
2 68265  53.1575 224.6998 0000751  77.4152   1.6661 15.87689310  3241
STARLINK-37042          
1 68266U 26055E   26091.16671296 -.01193646  00000+0 -48793-2 0  9996
2 68266  53.1573 224.6814 0000911  74.5854  13.2984 15.87733151  3242
STARLINK-37103          
1 68267U 26055F   26091.16671296 -.01196258  00000+0 -48856-2 0  9999
2 68267  53.1576 224.6723 0000772  78.3643  13.8516 15.87757608  3248
STARLINK-36999          
1 68268U 26055G   26091.16671296 -.01204195  00000+0 -49098-2 0  9999
2 68268  53.1573 224.6640 0000723  80.3254  15.9665 15.87807259  3247
STARLINK-36962          
1 68269U 26055H   26091.16671296 -.01212262  00000+0 -49366-2 0  9992
2 68269  53.1574 224.6550 0000806  74.5551  25.9579 15.87847490  3242
STARLINK-37028          
1 68270U 26055J   26091.16671296 -.01246869  00000+0 -51209-2 0  9993
2 68270  53.1573 224.6320 0000876  73.1932  38.1527 15.87747000  3248
STARLINK-37029          
1 68271U 26055K   26091.16671296 -.01243695  00000+0 -51155-2 0  9998
2 68271  53.1572 224.6415 0000774  76.0688  30.9763 15.87711711  3242
STARLINK-36974          
1 68272U 26055L   26091.16671296 -.01262895  00000+0 -51957-2 0  9992
2 68272  53.1571 224.6219 0000944  77.1178  39.1515 15.87744218  3243
STARLINK-37019          
1 68273U 26055M   26091.16671296 -.01267846  00000+0 -52015-2 0  9990
2 68273  53.1572 224.6131 0000912  78.8399  41.3987 15.87810727  3243
STARLINK-37129          
1 68274U 26055N   26091.16671296 -.01266865  00000+0 -51873-2 0  9992
2 68274  53.1570 224.6044 0000852  79.0050  45.5505 15.87848335  3243
STARLINK-37123          
1 68275U 26055P   26091.16671296 -.01276340  00000+0 -52100-2 0  9996
2 68275  53.1572 224.5966 0000918  76.4722  51.9663 15.87928343  3242
